[{"OBJECT_NAME":"STARLINK-6180","OBJECT_ID":"2023-083M","EPOCH":"2026-03-09T01:17:14.528832","MEAN_MOTION":15.02535054,"ECCENTRICITY":0.00013351,"INCLINATION":43.0039,"RA_OF_ASC_NODE":85.3208,"ARG_OF_PERICENTER":256.6188,"MEAN_ANOMALY":103.4506,"EPHEMERIS_TYPE":0,"CLASSIFICATION_TYPE":"U","NORAD_CAT_ID":56887,"ELEMENT_SET_NO":999,"REV_AT_EPOCH":15157,"BSTAR":-5.402648e-6,"MEAN_MOTION_DOT":-2.77e-6,"MEAN_MOTION_DDOT":0},{"OBJECT_NAME":"COSMOS 252 DEB","OBJECT_ID":"1968-097V","EPOCH":"2026-03-09T18:28:27.025536","MEAN_MOTION":13.95930502,"ECCENTRICITY":0.05677456,"INCLINATION":62.2909,"RA_OF_ASC_NODE":308.7673,"ARG_OF_PERICENTER":111.7397,"MEAN_ANOMALY":254.5052,"EPHEMERIS_TYPE":0,"CLASSIFICATION_TYPE":"U","NORAD_CAT_ID":3569,"ELEMENT_SET_NO":999,"REV_AT_EPOCH":80496,"BSTAR":0.0012792224,"MEAN_MOTION_DOT":6.937e-5,"MEAN_MOTION_DDOT":0}]
